COMMENT,ORIGINATOR,NORAD_CAT_ID,OBJECT_NAME,OBJECT_TYPE,CLASSIFICATION_TYPE,INTLDES,EPOCH,EPOCH_MICROSECONDS,MEAN_MOTION,ECCENTRICITY,INCLINATION,RA_OF_ASC_NODE,ARG_OF_PERICENTER,MEAN_ANOMALY,EPHEMERIS_TYPE,ELEMENT_SET_NO,REV_AT_EPOCH,BSTAR,MEAN_MOTION_DOT,MEAN_MOTION_DDOT,FILE,TLE_LINE0,TLE_LINE1,TLE_LINE2,OBJECT_ID,OBJECT_NUMBER,SEMIMAJOR_AXIS,PERIOD,APOGEE,PERIGEE,DECAYED,date
GENERATED VIA SPACETRACK.ORG API,18 SPCS,46300,SPACEBEE-21,PAYLOAD,U,20061AE,2023/1/1 3:57,552928,15.28946901,0.0000563,97.4306,76.4669,132.7365,227.3923,0,999,12862,0.0015756,0.00044439,0,3728759,0 SPACEBEE-21,1 46300U 20061AE  23001.16506427  .00044439  00000-0  15756-2 0  9999,2 46300  97.4306  76.4669 0000563 132.7365 227.3923 15.28946901128625,2020-061AE,46300,6857.096,94.182,479.347,478.575,1,2023/1/1
GENERATED VIA SPACETRACK.ORG API,18 SPCS,46300,SPACEBEE-21,PAYLOAD,U,20061AE,2023/1/2 0:22,359648,15.29021494,0.0000628,97.4305,77.3164,129.4918,230.6377,0,999,12875,0.0015431,0.00043616,0,3729064,0 SPACEBEE-21,1 46300U 20061AE  23002.01584907  .00043616  00000-0  15431-2 0  9999,2 46300  97.4305  77.3164 0000628 129.4918 230.6377 15.29021494128759,2020-061AE,46300,6856.873,94.178,479.169,478.308,1,2023/1/2
GENERATED VIA SPACETRACK.ORG API,18 SPCS,46300,SPACEBEE-21,PAYLOAD,U,20061AE,2023/1/2 3:31,893632,15.29037877,0.0000625,97.4304,77.4472,127.6531,232.4766,0,999,12877,0.001689,0.00047797,0,3729583,0 SPACEBEE-21,1 46300U 20061AE  23002.14673488  .00047797  00000-0  16890-2 0  9990,2 46300  97.4304  77.4472 0000625 127.6531 232.4766 15.29037877128775,2020-061AE,46300,6856.824,94.177,479.118,478.261,1,2023/1/3
GENERATED VIA SPACETRACK.ORG API,18 SPCS,46300,SPACEBEE-21,PAYLOAD,U,20061AE,2023/1/2 19:13,560448,15.29085736,0.0000699,97.4306,78.1008,125.5341,234.5965,0,999,12887,0.0013295,0.00037612,0,3729873,0 SPACEBEE-21,1 46300U 20061AE  23002.80115232  .00037612  00000-0  13295-2 0  9992,2 46300  97.4306  78.1008 0000699 125.5341 234.5965 15.29085736128879,2020-061AE,46300,6856.681,94.174,479.025,478.067,1,2023/1/4
GENERATED VIA SPACETRACK.ORG API,18 SPCS,46300,SPACEBEE-21,PAYLOAD,U,20061AE,2023/1/3 10:55,297952,15.29139976,0.0000743,97.4304,78.7544,123.8599,236.2712,0,999,12897,0.0014419,0.00040884,0,3730618,0 SPACEBEE-21,1 46300U 20061AE  23003.45554743  .00040884  00000-0  14419-2 0  9992,2 46300  97.4304  78.7544 0000743 123.8599 236.2712 15.29139976128970,2020-061AE,46300,6856.519,94.171,478.893,477.874,1,2023/1/5
GENERATED VIA SPACETRACK.ORG API,18 SPCS,46300,SPACEBEE-21,PAYLOAD,U,20061AE,2023/1/3 10:55,297952,15.29139976,0.0000743,97.4304,78.7544,123.8599,236.2712,0,999,12897,0.0014419,0.00040884,0,3730926,0 SPACEBEE-21,1 46300U 20061AE  23003.45554743  .00040884  00000-0  14419-2 0  9992,2 46300  97.4304  78.7544 0000743 123.8599 236.2712 15.29139976128970,2020-061AE,46300,6856.519,94.171,478.893,477.874,1,2023/1/6
GENERATED VIA SPACETRACK.ORG API,18 SPCS,46300,SPACEBEE-21,PAYLOAD,U,20061AE,2023/1/4 10:29,276704,15.29225931,0.0000691,97.4303,79.7348,127.0723,233.058,0,999,12912,0.0017658,0.00050279,0,3731823,0 SPACEBEE-21,1 46300U 20061AE  23004.43709811  .00050279  00000-0  17658-2 0  9996,2 46300  97.4303  79.7348 0000691 127.0723 233.0580 15.29225931129122,2020-061AE,46300,6856.262,94.165,478.601,477.653,1,2023/1/7
GENERATED VIA SPACETRACK.ORG API,18 SPCS,46300,SPACEBEE-21,PAYLOAD,U,20061AE,2023/1/4 18:20,627328,15.2926433,0.0000661,97.43,80.0614,128.3762,231.7538,0,999,12917,0.0018617,0.00053096,0,3732608,0 SPACEBEE-21,1 46300U 20061AE  23004.76426652  .00053096  00000-0  18617-2 0  9997,2 46300  97.4300  80.0614 0000661 128.3762 231.7538 15.29264330129173,2020-061AE,46300,6856.147,94.163,478.465,477.559,1,2023/1/8
GENERATED VIA SPACETRACK.ORG API,18 SPCS,46300,SPACEBEE-21,PAYLOAD,U,20061AE,2023/1/5 2:11,299712,15.29299129,0.000065,97.43,80.3882,127.1322,232.9978,0,999,12922,0.0017436,0.00049754,0,3732939,0 SPACEBEE-21,1 46300U 20061AE  23005.09142708  .00049754  00000-0  17436-2 0  9995,2 46300  97.4300  80.3882 0000650 127.1322 232.9978 15.29299129129221,2020-061AE,46300,6856.043,94.161,478.354,477.463,1,2023/1/9
GENERATED VIA SPACETRACK.ORG API,18 SPCS,46300,SPACEBEE-21,PAYLOAD,U,20061AE,2023/1/5 3:45,567488,15.2930815,0.000065,97.4299,80.4536,127.0423,233.0877,0,999,12923,0.0018157,0.00051843,0,3732963,0 SPACEBEE-21,1 46300U 20061AE  23005.15685842  .00051843  00000-0  18157-2 0  9996,2 46300  97.4299  80.4536 0000650 127.0423 233.0877 15.29308150129232,2020-061AE,46300,6856.016,94.16,478.327,477.436,1,2023/1/10
GENERATED VIA SPACETRACK.ORG API,18 SPCS,46300,SPACEBEE-21,PAYLOAD,U,20061AE,2023/1/6 11:10,49536,15.29456555,0.0000737,97.4299,81.7609,117.637,242.4945,0,999,12943,0.0018303,0.00052504,0,3733970,0 SPACEBEE-21,1 46300U 20061AE  23006.46541724  .00052504  00000-0  18303-2 0  9999,2 46300  97.4299  81.7609 0000737 117.6370 242.4945 15.29456555129434,2020-061AE,46300,6855.573,94.151,477.943,476.933,1,2023/1/11
GENERATED VIA SPACETRACK.ORG API,18 SPCS,46300,SPACEBEE-21,PAYLOAD,U,20061AE,2023/1/6 11:10,49536,15.29456555,0.0000737,97.4299,81.7609,117.637,242.4945,0,999,12943,0.0018303,0.00052504,0,3734255,0 SPACEBEE-21,1 46300U 20061AE  23006.46541724  .00052504  00000-0  18303-2 0  9999,2 46300  97.4299  81.7609 0000737 117.6370 242.4945 15.29456555129434,2020-061AE,46300,6855.573,94.151,477.943,476.933,1,2023/1/12
GENERATED VIA SPACETRACK.ORG API,18 SPCS,46300,SPACEBEE-21,PAYLOAD,U,20061AE,2023/1/7 15:25,730144,15.29578616,0.0000591,97.4291,82.9369,117.7186,242.4114,0,999,12961,0.0018629,0.00053649,0,3735389,0 SPACEBEE-21,1 46300U 20061AE  23007.64301771  .00053649  00000-0  18629-2 0  9998,2 46300  97.4291  82.9369 0000591 117.7186 242.4114 15.29578616129617,2020-061AE,46300,6855.208,94.144,477.478,476.668,1,2023/1/13
GENERATED VIA SPACETRACK.ORG API,18 SPCS,46300,SPACEBEE-21,PAYLOAD,U,20061AE,2023/1/7 15:25,730144,15.29578616,0.0000591,97.4291,82.9369,117.7186,242.4114,0,999,12961,0.0018629,0.00053649,0,3735488,0 SPACEBEE-21,1 46300U 20061AE  23007.64301771  .00053649  00000-0  18629-2 0  9998,2 46300  97.4291  82.9369 0000591 117.7186 242.4114 15.29578616129617,2020-061AE,46300,6855.208,94.144,477.478,476.668,1,2023/1/14
GENERATED VIA SPACETRACK.ORG API,18 SPCS,46300,SPACEBEE-21,PAYLOAD,U,20061AE,2023/1/8 3:59,78560,15.29629771,0.0000576,97.4288,83.4591,126.9612,233.1681,0,999,12969,0.0018652,0.00053801,0,3736235,0 SPACEBEE-21,1 46300U 20061AE  23008.16636665  .00053801  00000-0  18652-2 0  9995,2 46300  97.4288  83.4591 0000576 126.9612 233.1681 15.29629771129698,2020-061AE,46300,6855.055,94.14,477.315,476.525,1,2023/1/15
GENERATED VIA SPACETRACK.ORG API,18 SPCS,46300,SPACEBEE-21,PAYLOAD,U,20061AE,2023/1/8 22:49,85824,15.29713652,0.000062,97.4287,84.2438,121.3033,238.8268,0,999,12981,0.0019271,0.00055747,0,3736884,0 SPACEBEE-21,1 46300U 20061AE  23008.95135516  .00055747  00000-0  19271-2 0  9990,2 46300  97.4287  84.2438 0000620 121.3033 238.8268 15.29713652129811,2020-061AE,46300,6854.805,94.135,477.095,476.245,1,2023/1/16
GENERATED VIA SPACETRACK.ORG API,18 SPCS,46300,SPACEBEE-21,PAYLOAD,U,20061AE,2023/1/8 22:49,85824,15.29713652,0.000062,97.4287,84.2438,121.3033,238.8268,0,999,12981,0.0019271,0.00055747,0,3737263,0 SPACEBEE-21,1 46300U 20061AE  23008.95135516  .00055747  00000-0  19271-2 0  9990,2 46300  97.4287  84.2438 0000620 121.3033 238.8268 15.29713652129811,2020-061AE,46300,6854.805,94.135,477.095,476.245,1,2023/1/17
GENERATED VIA SPACETRACK.ORG API,18 SPCS,46300,SPACEBEE-21,PAYLOAD,U,20061AE,2023/1/10 4:39,84096,15.29842067,0.0000728,97.4282,85.486,117.714,242.4174,0,999,13000,0.0016834,0.00048835,0,3738433,0 SPACEBEE-21,1 46300U 20061AE  23010.19416764  .00048835  00000-0  16834-2 0  9998,2 46300  97.4282  85.4860 0000728 117.7140 242.4174 15.29842067130008,2020-061AE,46300,6854.421,94.127,476.785,475.787,1,2023/1/18
GENERATED VIA SPACETRACK.ORG API,18 SPCS,46300,SPACEBEE-21,PAYLOAD,U,20061AE,2023/1/10 10:56,7680,15.29866988,0.0000733,97.4279,85.7478,115.2465,244.8851,0,999,13004,0.0017677,0.00051341,0,3739038,0 SPACEBEE-21,1 46300U 20061AE  23010.45579870  .00051341  00000-0  17677-2 0  9997,2 46300  97.4279  85.7478 0000733 115.2465 244.8851 15.29866988130041,2020-061AE,46300,6854.347,94.126,476.714,475.709,1,2023/1/19
GENERATED VIA SPACETRACK.ORG API,18 SPCS,46300,SPACEBEE-21,PAYLOAD,U,20061AE,2023/1/11 4:12,282560,15.29956376,0.0000697,97.4275,86.4665,119.1222,241.0088,0,999,13015,0.0020342,0.00059318,0,3739566,0 SPACEBEE-21,1 46300U 20061AE  23011.17525790  .00059318  00000-0  20342-2 0  9994,2 46300  97.4275  86.4665 0000697 119.1222 241.0088 15.29956376130150,2020-061AE,46300,6854.08,94.12,476.422,475.467,1,2023/1/20
GENERATED VIA SPACETRACK.ORG API,18 SPCS,46300,SPACEBEE-21,PAYLOAD,U,20061AE,2023/1/11 10:29,495424,15.29985797,0.0000698,97.4277,86.7287,111.9437,248.1878,0,999,13019,0.0021184,0.00061853,0,3740054,0 SPACEBEE-21,1 46300U 20061AE  23011.43686916  .00061853  00000-0  21184-2 0  9993,2 46300  97.4277  86.7287 0000698 111.9437 248.1878 15.29985797130192,2020-061AE,46300,6853.992,94.119,476.335,475.378,1,2023/1/21
GENERATED VIA SPACETRACK.ORG API,18 SPCS,46300,SPACEBEE-21,PAYLOAD,U,20061AE,2023/1/12 3:45,723680,15.3008594,0.0000616,97.4276,87.4476,113.3543,246.7762,0,999,13030,0.0022558,0.00066111,0,3741573,0 SPACEBEE-21,1 46300U 20061AE  23012.15626995  .00066111  00000-0  22558-2 0  9992,2 46300  97.4276  87.4476 0000616 113.3543 246.7762 15.30085940130305,2020-061AE,46300,6853.693,94.112,475.98,475.135,1,2023/1/22
GENERATED VIA SPACETRACK.ORG API,18 SPCS,46300,SPACEBEE-21,PAYLOAD,U,20061AE,2023/1/12 3:45,723680,15.3008594,0.0000616,97.4276,87.4476,113.3543,246.7762,0,999,13030,0.0022558,0.00066111,0,3742227,0 SPACEBEE-21,1 46300U 20061AE  23012.15626995  .00066111  00000-0  22558-2 0  9992,2 46300  97.4276  87.4476 0000616 113.3543 246.7762 15.30085940130305,2020-061AE,46300,6853.693,94.112,475.98,475.135,1,2023/1/23
